CCSDS_OMM_VERS = 2.0
CREATION_DATE  = 
ORIGINATOR     = 

OBJECT_NAME    = ISS (ZARYA)
OBJECT_ID      = 1998-067A
CENTER_NAME    = EARTH
REF_FRAME      = TEME
TIME_SYSTEM    = UTC
MEAN_ELEMENT_THEORY = SGP/SGP4

EPOCH          = 2026-01-26T13:29:46.904352
MEAN_MOTION    = 15.48203655
ECCENTRICITY   = .0011114
INCLINATION    = 51.6321
RA_OF_ASC_NODE = 280.6014
ARG_OF_PERICENTER = 32.6655
MEAN_ANOMALY   = 327.5019

EPHEMERIS_TYPE = 0
CLASSIFICATION_TYPE = U
NORAD_CAT_ID   = 25544
ELEMENT_SET_NO = 999
REV_AT_EPOCH   = 54980
BSTAR          = .24389E-3
MEAN_MOTION_DOT = .12665E-3
MEAN_MOTION_DDOT = 0

CCSDS_OMM_VERS = 2.0
CREATION_DATE  = 
ORIGINATOR     = 

OBJECT_NAME    = CSS (TIANHE)
OBJECT_ID      = 2021-035A
CENTER_NAME    = EARTH
REF_FRAME      = TEME
TIME_SYSTEM    = UTC
MEAN_ELEMENT_THEORY = SGP/SGP4

EPOCH          = 2026-01-26T14:08:01.171680
MEAN_MOTION    = 15.61124470
ECCENTRICITY   = .0009745
INCLINATION    = 41.4668
RA_OF_ASC_NODE = 104.0442
ARG_OF_PERICENTER = 7.7194
MEAN_ANOMALY   = 352.3793

EPHEMERIS_TYPE = 0
CLASSIFICATION_TYPE = U
NORAD_CAT_ID   = 48274
ELEMENT_SET_NO = 999
REV_AT_EPOCH   = 27103
BSTAR          = .29991E-3
MEAN_MOTION_DOT = .25844E-3
MEAN_MOTION_DDOT = 0

CCSDS_OMM_VERS = 2.0
CREATION_DATE  = 
ORIGINATOR     = 

OBJECT_NAME    = ISS (NAUKA)
OBJECT_ID      = 2021-066A
CENTER_NAME    = EARTH
REF_FRAME      = TEME
TIME_SYSTEM    = UTC
MEAN_ELEMENT_THEORY = SGP/SGP4

EPOCH          = 2026-01-26T13:29:46.905216
MEAN_MOTION    = 15.48203655
ECCENTRICITY   = .0011114
INCLINATION    = 51.6321
RA_OF_ASC_NODE = 280.6014
ARG_OF_PERICENTER = 32.6655
MEAN_ANOMALY   = 327.5019

EPHEMERIS_TYPE = 0
CLASSIFICATION_TYPE = U
NORAD_CAT_ID   = 49044
ELEMENT_SET_NO = 999
REV_AT_EPOCH   = 23044
BSTAR          = .2438867E-3
MEAN_MOTION_DOT = .12665E-3
MEAN_MOTION_DDOT = 0

CCSDS_OMM_VERS = 2.0
CREATION_DATE  = 
ORIGINATOR     = 

OBJECT_NAME    = FREGAT DEB
OBJECT_ID      = 2011-037PF
CENTER_NAME    = EARTH
REF_FRAME      = TEME
TIME_SYSTEM    = UTC
MEAN_ELEMENT_THEORY = SGP/SGP4

EPOCH          = 2026-01-26T07:38:08.674944
MEAN_MOTION    = 12.36905056
ECCENTRICITY   = .0909661
INCLINATION    = 51.6485
RA_OF_ASC_NODE = 67.3865
ARG_OF_PERICENTER = 322.4822
MEAN_ANOMALY   = 31.5760

EPHEMERIS_TYPE = 0
CLASSIFICATION_TYPE = U
NORAD_CAT_ID   = 49271
ELEMENT_SET_NO = 999
REV_AT_EPOCH   = 20744
BSTAR          = .97036E-1
MEAN_MOTION_DOT = .53157E-3
MEAN_MOTION_DDOT = 0

CCSDS_OMM_VERS = 2.0
CREATION_DATE  = 
ORIGINATOR     = 

OBJECT_NAME    = CSS (WENTIAN)
OBJECT_ID      = 2022-085A
CENTER_NAME    = EARTH
REF_FRAME      = TEME
TIME_SYSTEM    = UTC
MEAN_ELEMENT_THEORY = SGP/SGP4

EPOCH          = 2026-01-26T14:08:01.171680
MEAN_MOTION    = 15.61124470
ECCENTRICITY   = .00097448
INCLINATION    = 41.4668
RA_OF_ASC_NODE = 104.0443
ARG_OF_PERICENTER = 7.7194
MEAN_ANOMALY   = 352.3793

EPHEMERIS_TYPE = 0
CLASSIFICATION_TYPE = U
NORAD_CAT_ID   = 53239
ELEMENT_SET_NO = 999
REV_AT_EPOCH   = 17384
BSTAR          = .29991174E-3
MEAN_MOTION_DOT = .25844E-3
MEAN_MOTION_DDOT = 0

CCSDS_OMM_VERS = 2.0
CREATION_DATE  = 
ORIGINATOR     = 

OBJECT_NAME    = CSS (MENGTIAN)
OBJECT_ID      = 2022-143A
CENTER_NAME    = EARTH
REF_FRAME      = TEME
TIME_SYSTEM    = UTC
MEAN_ELEMENT_THEORY = SGP/SGP4

EPOCH          = 2026-01-26T14:08:01.171680
MEAN_MOTION    = 15.61124470
ECCENTRICITY   = .00097448
INCLINATION    = 41.4668
RA_OF_ASC_NODE = 104.0443
ARG_OF_PERICENTER = 7.7194
MEAN_ANOMALY   = 352.3793

EPHEMERIS_TYPE = 0
CLASSIFICATION_TYPE = U
NORAD_CAT_ID   = 54216
ELEMENT_SET_NO = 999
REV_AT_EPOCH   = 15864
BSTAR          = .29991174E-3
MEAN_MOTION_DOT = .25844E-3
MEAN_MOTION_DDOT = 0

CCSDS_OMM_VERS = 2.0
CREATION_DATE  = 
ORIGINATOR     = 

OBJECT_NAME    = PROGRESS-MS 31
OBJECT_ID      = 2025-146A
CENTER_NAME    = EARTH
REF_FRAME      = TEME
TIME_SYSTEM    = UTC
MEAN_ELEMENT_THEORY = SGP/SGP4

EPOCH          = 2026-01-26T13:29:46.905216
MEAN_MOTION    = 15.48203655
ECCENTRICITY   = .0011114
INCLINATION    = 51.6321
RA_OF_ASC_NODE = 280.6014
ARG_OF_PERICENTER = 32.6655
MEAN_ANOMALY   = 327.5019

EPHEMERIS_TYPE = 0
CLASSIFICATION_TYPE = U
NORAD_CAT_ID   = 64751
ELEMENT_SET_NO = 999
REV_AT_EPOCH   = 675
BSTAR          = .2438867E-3
MEAN_MOTION_DOT = .12665E-3
MEAN_MOTION_DDOT = 0

CCSDS_OMM_VERS = 2.0
CREATION_DATE  = 
ORIGINATOR     = 

OBJECT_NAME    = TIANZHOU-9
OBJECT_ID      = 2025-149A
CENTER_NAME    = EARTH
REF_FRAME      = TEME
TIME_SYSTEM    = UTC
MEAN_ELEMENT_THEORY = SGP/SGP4

EPOCH          = 2026-01-26T14:08:01.171680
MEAN_MOTION    = 15.61124470
ECCENTRICITY   = .00097448
INCLINATION    = 41.4668
RA_OF_ASC_NODE = 104.0443
ARG_OF_PERICENTER = 7.7194
MEAN_ANOMALY   = 352.3793

EPHEMERIS_TYPE = 0
CLASSIFICATION_TYPE = U
NORAD_CAT_ID   = 64786
ELEMENT_SET_NO = 999
REV_AT_EPOCH   = 25530
BSTAR          = .29991174E-3
MEAN_MOTION_DOT = .25844E-3
MEAN_MOTION_DDOT = 0

CCSDS_OMM_VERS = 2.0
CREATION_DATE  = 
ORIGINATOR     = 

OBJECT_NAME    = DRAGON CRS-33
OBJECT_ID      = 2025-186A
CENTER_NAME    = EARTH
REF_FRAME      = TEME
TIME_SYSTEM    = UTC
MEAN_ELEMENT_THEORY = SGP/SGP4

EPOCH          = 2026-01-26T13:29:46.905216
MEAN_MOTION    = 15.48203655
ECCENTRICITY   = .0011114
INCLINATION    = 51.6321
RA_OF_ASC_NODE = 280.6014
ARG_OF_PERICENTER = 32.6655
MEAN_ANOMALY   = 327.5019

EPHEMERIS_TYPE = 0
CLASSIFICATION_TYPE = U
NORAD_CAT_ID   = 65304
ELEMENT_SET_NO = 999
REV_AT_EPOCH   = 11
BSTAR          = .2438867E-3
MEAN_MOTION_DOT = .12665E-3
MEAN_MOTION_DDOT = 0

CCSDS_OMM_VERS = 2.0
CREATION_DATE  = 
ORIGINATOR     = 

OBJECT_NAME    = PROGRESS-MS 32
OBJECT_ID      = 2025-204A
CENTER_NAME    = EARTH
REF_FRAME      = TEME
TIME_SYSTEM    = UTC
MEAN_ELEMENT_THEORY = SGP/SGP4

EPOCH          = 2026-01-26T13:29:46.905216
MEAN_MOTION    = 15.48203655
ECCENTRICITY   = .0011114
INCLINATION    = 51.6321
RA_OF_ASC_NODE = 280.6014
ARG_OF_PERICENTER = 32.6655
MEAN_ANOMALY   = 327.5019

EPHEMERIS_TYPE = 0
CLASSIFICATION_TYPE = U
NORAD_CAT_ID   = 65586
ELEMENT_SET_NO = 999
REV_AT_EPOCH   = 27
BSTAR          = .2438867E-3
MEAN_MOTION_DOT = .12665E-3
MEAN_MOTION_DDOT = 0

CCSDS_OMM_VERS = 2.0
CREATION_DATE  = 
ORIGINATOR     = 

OBJECT_NAME    = CYGNUS NG-23
OBJECT_ID      = 2025-208A
CENTER_NAME    = EARTH
REF_FRAME      = TEME
TIME_SYSTEM    = UTC
MEAN_ELEMENT_THEORY = SGP/SGP4

EPOCH          = 2026-01-26T13:29:46.905216
MEAN_MOTION    = 15.48203655
ECCENTRICITY   = .0011114
INCLINATION    = 51.6321
RA_OF_ASC_NODE = 280.6014
ARG_OF_PERICENTER = 32.6655
MEAN_ANOMALY   = 327.5019

EPHEMERIS_TYPE = 0
CLASSIFICATION_TYPE = U
NORAD_CAT_ID   = 65616
ELEMENT_SET_NO = 999
REV_AT_EPOCH   = 22
BSTAR          = .2438867E-3
MEAN_MOTION_DOT = .12665E-3
MEAN_MOTION_DDOT = 0

CCSDS_OMM_VERS = 2.0
CREATION_DATE  = 
ORIGINATOR     = 

OBJECT_NAME    = DRAGONFLY
OBJECT_ID      = 1998-067XH
CENTER_NAME    = EARTH
REF_FRAME      = TEME
TIME_SYSTEM    = UTC
MEAN_ELEMENT_THEORY = SGP/SGP4

EPOCH          = 2026-01-26T17:25:28.941024
MEAN_MOTION    = 16.07613996
ECCENTRICITY   = .0007445
INCLINATION    = 51.6097
RA_OF_ASC_NODE = 261.2856
ARG_OF_PERICENTER = 207.9625
MEAN_ANOMALY   = 152.0989

EPHEMERIS_TYPE = 0
CLASSIFICATION_TYPE = U
NORAD_CAT_ID   = 65729
ELEMENT_SET_NO = 999
REV_AT_EPOCH   = 2029
BSTAR          = .15757E-2
MEAN_MOTION_DOT = .1295179E-1
MEAN_MOTION_DDOT = .10371E-2

