ISS (ZARYA)             
1 25544U 98067A   26026.56234843  .00012665  00000+0  24389-3 0  9999
2 25544  51.6321 280.6014 0011114  32.6655 327.5019 15.48203655549808
CSS (TIANHE)            
1 48274U 21035A   26026.58890245  .00025844  00000+0  29991-3 0  9998
2 48274  41.4668 104.0442 0009745   7.7194 352.3793 15.61124470271030
ISS (NAUKA)             
1 49044U 21066A   26026.56234844  .00012665  00000+0  24389-3 0  9996
2 49044  51.6321 280.6014 0011114  32.6655 327.5019 15.48203655230446
FREGAT DEB              
1 49271U 11037PF  26026.31815596  .00053157  00000+0  97036-1 0  9995
2 49271  51.6485  67.3865 0909661 322.4822  31.5760 12.36905056207449
CSS (WENTIAN)           
1 53239U 22085A   26026.58890245  .00025844  00000+0  29991-3 0  9991
2 53239  41.4668 104.0443 0009744   7.7194 352.3793 15.61124470173847
CSS (MENGTIAN)          
1 54216U 22143A   26026.58890245  .00025844  00000+0  29991-3 0  9992
2 54216  41.4668 104.0443 0009744   7.7194 352.3793 15.61124470158644
PROGRESS-MS 31          
1 64751U 25146A   26026.56234844  .00012665  00000+0  24389-3 0  9991
2 64751  51.6321 280.6014 0011114  32.6655 327.5019 15.48203655  6753
TIANZHOU-9              
1 64786U 25149A   26026.58890245  .00025844  00000+0  29991-3 0  9994
2 64786  41.4668 104.0443 0009744   7.7194 352.3793 15.61124470255308
DRAGON CRS-33           
1 65304U 25186A   26026.56234844  .00012665  00000+0  24389-3 0  9990
2 65304  51.6321 280.6014 0011114  32.6655 327.5019 15.48203655   112
PROGRESS-MS 32          
1 65586U 25204A   26026.56234844  .00012665  00000+0  24389-3 0  9993
2 65586  51.6321 280.6014 0011114  32.6655 327.5019 15.48203655   271
CYGNUS NG-23            
1 65616U 25208A   26026.56234844  .00012665  00000+0  24389-3 0  9991
2 65616  51.6321 280.6014 0011114  32.6655 327.5019 15.48203655   220
DRAGONFLY               
1 65729U 98067XH  26026.72602941  .01295179  10371-2  15757-2 0  9991
2 65729  51.6097 261.2856 0007445 207.9625 152.0989 16.07613996 20295
